{"type": "FeatureCollection", "features": [ {"type": "Feature", "properties": {"norad_id": 31243, "name": "FENGYUN 1C DEB", "group": "fengyun-1c-debris", "lat": -20.36128543077638, "lon": 36.090506908548626, "alt_km": 921.70128171142, "timestamp": "2025-12-18T17:50:15.238123+00:00", "meta": {"OBJECT_NAME": "FENGYUN 1C DEB", "OBJECT_ID": "1999-025BLZ", "EPOCH": "2025-12-15T13:08:38.901408", "MEAN_MOTION": 14.07176763, "ECCENTRICITY": 0.00662412, "INCLINATION": 98.7502, "RA_OF_ASC_NODE": 29.7205, "ARG_OF_PERICENTER": 160.6206, "MEAN_ANOMALY": 199.7504, "EPHEMERIS_TYPE": 0, "CLASSIFICATION_TYPE": "U", "NORAD_CAT_ID": 31243, "ELEMENT_SET_NO": 999, "REV_AT_EPOCH": 69347, "BSTAR": 0.0008746286, "MEAN_MOTION_DOT": 1.452e-05, "MEAN_MOTION_DDOT": 0}, "tle": {"line1": "1 31243U 99025BLZ 25349.54767247  .00001452  00000+0  87463-3 0  9995", "line2": "2 31243  98.7502  29.7205 0066241 160.6206 199.7504 14.07176763693477"}}, "geometry": {"type": "Point", "coordinates": [36.090506908548626, -20.36128543077638]}}, {"type": "Feature", "properties": {"norad_id": 31244, "name": "FENGYUN 1C DEB", "group": "fengyun-1c-debris", "lat": -16.825161268311476, "lon": 59.10978077341693, "alt_km": 950.9256879268942, "timestamp": "2025-12-18T17:50:15.238133+00:00", "meta": {"OBJECT_NAME": "FENGYUN 1C DEB", "OBJECT_ID": "1999-025BMA", "EPOCH": "2025-12-07T22:21:36.542016", "MEAN_MOTION": 14.06237413, "ECCENTRICITY": 0.01023168, "INCLINATION": 99.037, "RA_OF_ASC_NODE": 45.5611, "ARG_OF_PERICENTER": 188.335, "MEAN_ANOMALY": 171.6122, "EPHEMERIS_TYPE": 0, "CLASSIFICATION_TYPE": "U", "NORAD_CAT_ID": 31244, "ELEMENT_SET_NO": 999, "REV_AT_EPOCH": 57572, "BSTAR": 0.00047777338, "MEAN_MOTION_DOT": 7.8e-06, "MEAN_MOTION_DDOT": 0}, "tle": {"line1": "1 31244U 99025BMA 25341.93167294  .00000780  00000+0  47777-3 0  9994", "line2": "2 31244  99.0370  45.5611 0102316 188.3350 171.6122 14.06237413575724"}}, "geometry": {"type": "Point", "coordinates": [59.10978077341693, -16.825161268311476]}}, {"type": "Feature", "properties": {"norad_id": 31246, "name": "FENGYUN 1C DEB", "group": "fengyun-1c-debris", "lat": -80.92259805103149, "lon": -84.11052097612685, "alt_km": 812.7781282594187, "timestamp": "2025-12-18T17:50:15.238143+00:00", "meta": {"OBJECT_NAME": "FENGYUN 1C DEB", "OBJECT_ID": "1999-025BMC", "EPOCH": "2025-12-12T08:40:07.558176", "MEAN_MOTION": 14.07203108, "ECCENTRICITY": 0.01486979, "INCLINATION": 98.8179, "RA_OF_ASC_NODE": 193.3588, "ARG_OF_PERICENTER": 344.8205, "MEAN_ANOMALY": 14.8526, "EPHEMERIS_TYPE": 0, "CLASSIFICATION_TYPE": "U", "NORAD_CAT_ID": 31246, "ELEMENT_SET_NO": 999, "REV_AT_EPOCH": 61747, "BSTAR": 0.003171684, "MEAN_MOTION_DOT": 5.838e-05, "MEAN_MOTION_DDOT": 0}, "tle": {"line1": "1 31246U 99025BMC 25346.36119859  .00005838  00000+0  31717-2 0  9997", "line2": "2 31246  98.8179 193.3588 0148697 344.8205  14.8526 14.07203108617475"}}, "geometry": {"type": "Point", "coordinates": [-84.11052097612685, -80.92259805103149]}}, {"type": "Feature", "properties": {"norad_id": 31247, "name": "FENGYUN 1C DEB", "group": "fengyun-1c-debris", "lat": -68.45019370546034, "lon": 36.41104598061174, "alt_km": 922.2837882667054, "timestamp": "2025-12-18T17:50:15.238154+00:00", "meta": {"OBJECT_NAME": "FENGYUN 1C DEB", "OBJECT_ID": "1999-025BMD", "EPOCH": "2025-12-17T22:08:12.153696", "MEAN_MOTION": 14.05137592, "ECCENTRICITY": 0.0059045, "INCLINATION": 99.3671, "RA_OF_ASC_NODE": 240.2703, "ARG_OF_PERICENTER": 48.4947, "MEAN_ANOMALY": 12.1435, "EPHEMERIS_TYPE": 0, "CLASSIFICATION_TYPE": "U", "NORAD_CAT_ID": 31247, "ELEMENT_SET_NO": 999, "REV_AT_EPOCH": 95594, "BSTAR": 0.001084956, "MEAN_MOTION_DOT": 1.732e-05, "MEAN_MOTION_DDOT": 0}, "tle": {"line1": "1 31247U 99025BMD 25351.92236289  .00001732  00000+0  10850-2 0  9997", "line2": "2 31247  99.3671 240.2703 0059045  48.4947  12.1435 14.05137592955946"}}, "geometry": {"type": "Point", "coordinates": [36.41104598061174, -68.45019370546034]}}, {"type": "Feature", "properties": {"norad_id": 31248, "name": "FENGYUN 1C DEB", "group": "fengyun-1c-debris", "lat": -16.374155185845783, "lon": -132.54414302813075, "alt_km": 934.6106203946483, "timestamp": "2025-12-18T17:50:15.238164+00:00", "meta": {"OBJECT_NAME": "FENGYUN 1C DEB", "OBJECT_ID": "1999-025BME", "EPOCH": "2025-12-17T03:13:34.317408", "MEAN_MOTION": 13.92790225, "ECCENTRICITY": 0.01097677, "INCLINATION": 99.2641, "RA_OF_ASC_NODE": 48.5954, "ARG_OF_PERICENTER": 299.3656, "MEAN_ANOMALY": 116.0825, "EPHEMERIS_TYPE": 0, "CLASSIFICATION_TYPE": "U", "NORAD_CAT_ID": 31248, "ELEMENT_SET_NO": 999, "REV_AT_EPOCH": 94885, "BSTAR": 0.00048331211, "MEAN_MOTION_DOT": 6.11e-06, "MEAN_MOTION_DDOT": 0}, "tle": {"line1": "1 31248U 99025BME 25351.13442497  .00000611  00000+0  48331-3 0  9992", "line2": "2 31248  99.2641  48.5954 0109767 299.3656 116.0825 13.92790225948853"}}, "geometry": {"type": "Point", "coordinates": [-132.54414302813075, -16.374155185845783]}}, {"type": "Feature", "properties": {"norad_id": 31250, "name": "FENGYUN 1C DEB", "group": "fengyun-1c-debris", "lat": -67.90213955814686, "lon": 1.0016755490548273, "alt_km": 807.6107086072761, "timestamp": "2025-12-18T17:50:15.238174+00:00", "meta": {"OBJECT_NAME": "FENGYUN 1C DEB", "OBJECT_ID": "1999-025BMG", "EPOCH": "2025-12-18T01:14:18.315168", "MEAN_MOTION": 14.03104693, "ECCENTRICITY": 0.01330863, "INCLINATION": 98.3883, "RA_OF_ASC_NODE": 201.6738, "ARG_OF_PERICENTER": 282.98, "MEAN_ANOMALY": 75.6536, "EPHEMERIS_TYPE": 0, "CLASSIFICATION_TYPE": "U", "NORAD_CAT_ID": 31250, "ELEMENT_SET_NO": 999, "REV_AT_EPOCH": 95592, "BSTAR": 0.00090450601, "MEAN_MOTION_DOT": 1.481e-05, "MEAN_MOTION_DDOT": 0}, "tle": {"line1": "1 31250U 99025BMG 25352.05160087  .00001481  00000+0  90451-3 0  9995", "line2": "2 31250  98.3883 201.6738 0133086 282.9800  75.6536 14.03104693955922"}}, "geometry": {"type": "Point", "coordinates": [1.0016755490548273, -67.90213955814686]}}, {"type": "Feature", "properties": {"norad_id": 31252, "name": "FENGYUN 1C DEB", "group": "fengyun-1c-debris", "lat": 25.529588192991213, "lon": 7.415852781567575, "alt_km": 849.5110434372491, "timestamp": "2025-12-18T17:50:15.238185+00:00", "meta": {"OBJECT_NAME": "FENGYUN 1C DEB", "OBJECT_ID": "1999-025BMJ", "EPOCH": "2025-12-17T18:22:10.909056", "MEAN_MOTION": 14.40187577, "ECCENTRICITY": 0.02140088, "INCLINATION": 98.3168, "RA_OF_ASC_NODE": 10.4713, "ARG_OF_PERICENTER": 157.098, "MEAN_ANOMALY": 203.9929, "EPHEMERIS_TYPE": 0, "CLASSIFICATION_TYPE": "U", "NORAD_CAT_ID": 31252, "ELEMENT_SET_NO": 999, "REV_AT_EPOCH": 97279, "BSTAR": 0.00025554258, "MEAN_MOTION_DOT": 1.009e-05, "MEAN_MOTION_DDOT": 0}, "tle": {"line1": "1 31252U 99025BMJ 25351.76540404  .00001009  00000+0  25554-3 0  9997", "line2": "2 31252  98.3168  10.4713 0214008 157.0980 203.9929 14.40187577972793"}}, "geometry": {"type": "Point", "coordinates": [7.415852781567575, 25.529588192991213]}}, {"type": "Feature", "properties": {"norad_id": 31253, "name": "FENGYUN 1C DEB", "group": "fengyun-1c-debris", "lat": 70.1794634467795, "lon": 31.43296061261627, "alt_km": 663.4878217760033, "timestamp": "2025-12-18T17:50:15.238195+00:00", "meta": {"OBJECT_NAME": "FENGYUN 1C DEB", "OBJECT_ID": "1999-025BMK", "EPOCH": "2025-12-17T22:41:24.357984", "MEAN_MOTION": 14.03605882, "ECCENTRICITY": 0.02907471, "INCLINATION": 99.0768, "RA_OF_ASC_NODE": 56.9647, "ARG_OF_PERICENTER": 76.4077, "MEAN_ANOMALY": 286.9293, "EPHEMERIS_TYPE": 0, "CLASSIFICATION_TYPE": "U", "NORAD_CAT_ID": 31253, "ELEMENT_SET_NO": 999, "REV_AT_EPOCH": 69071, "BSTAR": 5.1352029e-05, "MEAN_MOTION_DOT": 7.2e-07, "MEAN_MOTION_DDOT": 0}, "tle": {"line1": "1 31253U 99025BMK 25351.94542081  .00000072  00000+0  51352-4 0  9996", "line2": "2 31253  99.0768  56.9647 0290747  76.4077 286.9293 14.03605882690711"}}, "geometry": {"type": "Point", "coordinates": [31.43296061261627, 70.1794634467795]}}, {"type": "Feature", "properties": {"norad_id": 31254, "name": "FENGYUN 1C DEB", "group": "fengyun-1c-debris", "lat": 65.80061141887369, "lon": -118.32044923261802, "alt_km": 728.2448713806561, "timestamp": "2025-12-18T17:50:15.238205+00:00", "meta": {"OBJECT_NAME": "FENGYUN 1C DEB", "OBJECT_ID": "1999-025BML", "EPOCH": "2025-12-17T22:04:04.464768", "MEAN_MOTION": 14.36373477, "ECCENTRICITY": 0.01515462, "INCLINATION": 98.4627, "RA_OF_ASC_NODE": 41.5232, "ARG_OF_PERICENTER": 186.6857, "MEAN_ANOMALY": 350.6272, "EPHEMERIS_TYPE": 0, "CLASSIFICATION_TYPE": "U", "NORAD_CAT_ID": 31254, "ELEMENT_SET_NO": 999, "REV_AT_EPOCH": 97590, "BSTAR": 0.00039414226, "MEAN_MOTION_DOT": 1.268e-05, "MEAN_MOTION_DDOT": 0}, "tle": {"line1": "1 31254U 99025BML 25351.91949612  .00001268  00000+0  39414-3 0  9997", "line2": "2 31254  98.4627  41.5232 0151546 186.6857 350.6272 14.36373477975903"}}, "geometry": {"type": "Point", "coordinates": [-118.32044923261802, 65.80061141887369]}}, {"type": "Feature", "properties": {"norad_id": 31255, "name": "FENGYUN 1C DEB", "group": "fengyun-1c-debris", "lat": 2.1692129820581583, "lon": -9.603474539841889, "alt_km": 1029.4369990958176, "timestamp": "2025-12-18T17:50:15.238215+00:00", "meta": {"OBJECT_NAME": "FENGYUN 1C DEB", "OBJECT_ID": "1999-025BMM", "EPOCH": "2025-12-18T05:03:30.393216", "MEAN_MOTION": 14.09736319, "ECCENTRICITY": 0.02704777, "INCLINATION": 99.3082, "RA_OF_ASC_NODE": 169.4895, "ARG_OF_PERICENTER": 328.2557, "MEAN_ANOMALY": 30.2545, "EPHEMERIS_TYPE": 0, "CLASSIFICATION_TYPE": "U", "NORAD_CAT_ID": 31255, "ELEMENT_SET_NO": 999, "REV_AT_EPOCH": 96878, "BSTAR": 0.00026071179, "MEAN_MOTION_DOT": 5.89e-06, "MEAN_MOTION_DDOT": 0}, "tle": {"line1": "1 31255U 99025BMM 25352.21076844  .00000589  00000+0  26071-3 0  9990", "line2": "2 31255  99.3082 169.4895 0270477 328.2557  30.2545 14.09736319968780"}}, "geometry": {"type": "Point", "coordinates": [-9.603474539841889, 2.1692129820581583]}}]}